recID,Origin,Dest,FlightCount,DepDelay,DelFlights,AirportNameOrigin,LatOrigin,LongOrigin,AirportNameDest,LatDest,LongDest
0,ATL,BOS,5990,69911.0,1064,Hartsfield Jackson Atlanta Intl,33.636719,-84.428067,General Edward Lawrence Logan Intl,42.364346999999995,-71.00518100000001
1,BWI,BOS,4795,48542.0,765,Baltimore Washington Intl,39.175360999999995,-76.66833299999999,General Edward Lawrence Logan Intl,42.364346999999995,-71.00518100000001
2,CLT,BOS,3551,34044.0,575,Charlotte Douglas Intl,35.214,-80.943139,General Edward Lawrence Logan Intl,42.364346999999995,-71.00518100000001
3,DEN,BOS,2234,38605.0,540,Denver Intl,39.861655999999996,-104.67317800000001,General Edward Lawrence Logan Intl,42.364346999999995,-71.00518100000001
4,DFW,BOS,3036,40893.0,634,Dallas Fort Worth Intl,32.896828,-97.037997,General Edward Lawrence Logan Intl,42.364346999999995,-71.00518100000001
5,DTW,BOS,2377,25028.0,416,Detroit Metro Wayne Co,42.212444,-83.353389,General Edward Lawrence Logan Intl,42.364346999999995,-71.00518100000001
6,EWR,BOS,3870,59797.0,821,Newark Liberty Intl,40.6925,-74.168667,General Edward Lawrence Logan Intl,42.364346999999995,-71.00518100000001
7,IAH,BOS,1822,24596.0,333,George Bush Intercontinental,29.984433000000003,-95.341442,General Edward Lawrence Logan Intl,42.364346999999995,-71.00518100000001
8,JFK,BOS,7513,110760.0,1574,John F Kennedy Intl,40.639751000000004,-73.778925,General Edward Lawrence Logan Intl,42.364346999999995,-71.00518100000001
9,LAS,BOS,1383,13004.0,215,Mc Carran Intl,36.080056,-115.15225,General Edward Lawrence Logan Intl,42.364346999999995,-71.00518100000001
10,LAX,BOS,2441,31635.0,427,Los Angeles Intl,33.942536,-118.408075,General Edward Lawrence Logan Intl,42.364346999999995,-71.00518100000001
11,LGA,BOS,12035,30079.0,1007,La Guardia,40.777245,-73.872608,General Edward Lawrence Logan Intl,42.364346999999995,-71.00518100000001
12,MCO,BOS,3478,42574.0,631,Orlando Intl,28.429394,-81.308994,General Edward Lawrence Logan Intl,42.364346999999995,-71.00518100000001
13,MSP,BOS,1563,12516.0,235,Minneapolis St Paul Intl,44.881956,-93.221767,General Edward Lawrence Logan Intl,42.364346999999995,-71.00518100000001
14,ORD,BOS,7133,140203.0,1834,Chicago Ohare Intl,41.978603,-87.904842,General Edward Lawrence Logan Intl,42.364346999999995,-71.00518100000001
15,PHX,BOS,1067,7896.0,147,Phoenix Sky Harbor Intl,33.434278000000006,-112.011583,General Edward Lawrence Logan Intl,42.364346999999995,-71.00518100000001
16,SEA,BOS,980,3786.0,84,Seattle Tacoma Intl,47.449,-122.309306,General Edward Lawrence Logan Intl,42.364346999999995,-71.00518100000001
17,SFO,BOS,2594,39220.0,513,San Francisco Intl,37.618972,-122.374889,General Edward Lawrence Logan Intl,42.364346999999995,-71.00518100000001
18,SLC,BOS,707,3649.0,60,Salt Lake City Intl,40.788389,-111.977772,General Edward Lawrence Logan Intl,42.364346999999995,-71.00518100000001
19,ATL,BWI,5978,63060.0,961,Hartsfield Jackson Atlanta Intl,33.636719,-84.428067,Baltimore Washington Intl,39.175360999999995,-76.66833299999999
20,BOS,BWI,4797,42098.0,708,General Edward Lawrence Logan Intl,42.364346999999995,-71.00518100000001,Baltimore Washington Intl,39.175360999999995,-76.66833299999999
21,CLT,BWI,3684,30002.0,500,Charlotte Douglas Intl,35.214,-80.943139,Baltimore Washington Intl,39.175360999999995,-76.66833299999999
22,DEN,BWI,2655,36540.0,557,Denver Intl,39.861655999999996,-104.67317800000001,Baltimore Washington Intl,39.175360999999995,-76.66833299999999
23,DFW,BWI,2309,26841.0,408,Dallas Fort Worth Intl,32.896828,-97.037997,Baltimore Washington Intl,39.175360999999995,-76.66833299999999
24,DTW,BWI,3101,26732.0,428,Detroit Metro Wayne Co,42.212444,-83.353389,Baltimore Washington Intl,39.175360999999995,-76.66833299999999
25,EWR,BWI,508,8433.0,111,Newark Liberty Intl,40.6925,-74.168667,Baltimore Washington Intl,39.175360999999995,-76.66833299999999
26,IAH,BWI,1728,16108.0,244,George Bush Intercontinental,29.984433000000003,-95.341442,Baltimore Washington Intl,39.175360999999995,-76.66833299999999
27,JFK,BWI,1123,10681.0,180,John F Kennedy Intl,40.639751000000004,-73.778925,Baltimore Washington Intl,39.175360999999995,-76.66833299999999
28,LAS,BWI,1628,24254.0,359,Mc Carran Intl,36.080056,-115.15225,Baltimore Washington Intl,39.175360999999995,-76.66833299999999
29,LAX,BWI,897,11316.0,177,Los Angeles Intl,33.942536,-118.408075,Baltimore Washington Intl,39.175360999999995,-76.66833299999999
30,MCO,BWI,4926,46927.0,732,Orlando Intl,28.429394,-81.308994,Baltimore Washington Intl,39.175360999999995,-76.66833299999999
31,MSP,BWI,1017,8140.0,147,Minneapolis St Paul Intl,44.881956,-93.221767,Baltimore Washington Intl,39.175360999999995,-76.66833299999999
32,ORD,BWI,3552,54410.0,798,Chicago Ohare Intl,41.978603,-87.904842,Baltimore Washington Intl,39.175360999999995,-76.66833299999999
33,PHX,BWI,2103,18981.0,308,Phoenix Sky Harbor Intl,33.434278000000006,-112.011583,Baltimore Washington Intl,39.175360999999995,-76.66833299999999
34,SEA,BWI,242,3656.0,52,Seattle Tacoma Intl,47.449,-122.309306,Baltimore Washington Intl,39.175360999999995,-76.66833299999999
35,SFO,BWI,366,8786.0,115,San Francisco Intl,37.618972,-122.374889,Baltimore Washington Intl,39.175360999999995,-76.66833299999999
36,SLC,BWI,728,5185.0,78,Salt Lake City Intl,40.788389,-111.977772,Baltimore Washington Intl,39.175360999999995,-76.66833299999999
37,ATL,CLT,6720,57231.0,961,Hartsfield Jackson Atlanta Intl,33.636719,-84.428067,Charlotte Douglas Intl,35.214,-80.943139
38,BOS,CLT,3533,20760.0,358,General Edward Lawrence Logan Intl,42.364346999999995,-71.00518100000001,Charlotte Douglas Intl,35.214,-80.943139
39,BWI,CLT,3652,18353.0,340,Baltimore Washington Intl,39.175360999999995,-76.66833299999999,Charlotte Douglas Intl,35.214,-80.943139
40,DEN,CLT,1925,12703.0,187,Denver Intl,39.861655999999996,-104.67317800000001,Charlotte Douglas Intl,35.214,-80.943139
41,DFW,CLT,3797,31296.0,510,Dallas Fort Worth Intl,32.896828,-97.037997,Charlotte Douglas Intl,35.214,-80.943139
42,DTW,CLT,2703,16132.0,306,Detroit Metro Wayne Co,42.212444,-83.353389,Charlotte Douglas Intl,35.214,-80.943139
43,EWR,CLT,5945,84003.0,1176,Newark Liberty Intl,40.6925,-74.168667,Charlotte Douglas Intl,35.214,-80.943139
44,IAH,CLT,3709,37877.0,529,George Bush Intercontinental,29.984433000000003,-95.341442,Charlotte Douglas Intl,35.214,-80.943139
45,JFK,CLT,1833,23510.0,359,John F Kennedy Intl,40.639751000000004,-73.778925,Charlotte Douglas Intl,35.214,-80.943139
46,LAS,CLT,1730,15580.0,215,Mc Carran Intl,36.080056,-115.15225,Charlotte Douglas Intl,35.214,-80.943139
47,LAX,CLT,1460,8541.0,129,Los Angeles Intl,33.942536,-118.408075,Charlotte Douglas Intl,35.214,-80.943139
48,LGA,CLT,4958,29719.0,667,La Guardia,40.777245,-73.872608,Charlotte Douglas Intl,35.214,-80.943139
49,MCO,CLT,3276,17148.0,334,Orlando Intl,28.429394,-81.308994,Charlotte Douglas Intl,35.214,-80.943139
50,MSP,CLT,1814,3119.0,134,Minneapolis St Paul Intl,44.881956,-93.221767,Charlotte Douglas Intl,35.214,-80.943139
51,ORD,CLT,6013,91343.0,1274,Chicago Ohare Intl,41.978603,-87.904842,Charlotte Douglas Intl,35.214,-80.943139
52,PHX,CLT,2183,21282.0,317,Phoenix Sky Harbor Intl,33.434278000000006,-112.011583,Charlotte Douglas Intl,35.214,-80.943139
53,SEA,CLT,480,5790.0,88,Seattle Tacoma Intl,47.449,-122.309306,Charlotte Douglas Intl,35.214,-80.943139
54,SFO,CLT,1429,7003.0,107,San Francisco Intl,37.618972,-122.374889,Charlotte Douglas Intl,35.214,-80.943139
55,SLC,CLT,211,941.0,25,Salt Lake City Intl,40.788389,-111.977772,Charlotte Douglas Intl,35.214,-80.943139
56,ATL,DEN,5726,45421.0,782,Hartsfield Jackson Atlanta Intl,33.636719,-84.428067,Denver Intl,39.861655999999996,-104.67317800000001
57,BOS,DEN,2077,24600.0,331,General Edward Lawrence Logan Intl,42.364346999999995,-71.00518100000001,Denver Intl,39.861655999999996,-104.67317800000001
58,BWI,DEN,2664,30939.0,460,Baltimore Washington Intl,39.175360999999995,-76.66833299999999,Denver Intl,39.861655999999996,-104.67317800000001
59,CLT,DEN,1925,15633.0,248,Charlotte Douglas Intl,35.214,-80.943139,Denver Intl,39.861655999999996,-104.67317800000001
60,DFW,DEN,8193,72484.0,1279,Dallas Fort Worth Intl,32.896828,-97.037997,Denver Intl,39.861655999999996,-104.67317800000001
61,DTW,DEN,2919,23949.0,379,Detroit Metro Wayne Co,42.212444,-83.353389,Denver Intl,39.861655999999996,-104.67317800000001
62,EWR,DEN,2209,42821.0,515,Newark Liberty Intl,40.6925,-74.168667,Denver Intl,39.861655999999996,-104.67317800000001
63,IAH,DEN,4584,45248.0,671,George Bush Intercontinental,29.984433000000003,-95.341442,Denver Intl,39.861655999999996,-104.67317800000001
64,JFK,DEN,1082,11225.0,171,John F Kennedy Intl,40.639751000000004,-73.778925,Denver Intl,39.861655999999996,-104.67317800000001
65,LAS,DEN,8165,77199.0,1327,Mc Carran Intl,36.080056,-115.15225,Denver Intl,39.861655999999996,-104.67317800000001
66,LAX,DEN,8894,89301.0,1445,Los Angeles Intl,33.942536,-118.408075,Denver Intl,39.861655999999996,-104.67317800000001
67,LGA,DEN,2970,44057.0,581,La Guardia,40.777245,-73.872608,Denver Intl,39.861655999999996,-104.67317800000001
68,MCO,DEN,2997,22070.0,377,Orlando Intl,28.429394,-81.308994,Denver Intl,39.861655999999996,-104.67317800000001
69,MSP,DEN,5374,35638.0,653,Minneapolis St Paul Intl,44.881956,-93.221767,Denver Intl,39.861655999999996,-104.67317800000001
70,ORD,DEN,5773,93489.0,1290,Chicago Ohare Intl,41.978603,-87.904842,Denver Intl,39.861655999999996,-104.67317800000001
71,PHX,DEN,8402,60219.0,1118,Phoenix Sky Harbor Intl,33.434278000000006,-112.011583,Denver Intl,39.861655999999996,-104.67317800000001
72,SEA,DEN,6623,58697.0,963,Seattle Tacoma Intl,47.449,-122.309306,Denver Intl,39.861655999999996,-104.67317800000001
73,SFO,DEN,5374,62741.0,982,San Francisco Intl,37.618972,-122.374889,Denver Intl,39.861655999999996,-104.67317800000001
74,SLC,DEN,9269,64388.0,1145,Salt Lake City Intl,40.788389,-111.977772,Denver Intl,39.861655999999996,-104.67317800000001
75,ATL,DFW,9847,101920.0,1594,Hartsfield Jackson Atlanta Intl,33.636719,-84.428067,Dallas Fort Worth Intl,32.896828,-97.037997
76,BOS,DFW,3036,19945.0,397,General Edward Lawrence Logan Intl,42.364346999999995,-71.00518100000001,Dallas Fort Worth Intl,32.896828,-97.037997
77,BWI,DFW,2311,19278.0,309,Baltimore Washington Intl,39.175360999999995,-76.66833299999999,Dallas Fort Worth Intl,32.896828,-97.037997
78,CLT,DFW,3796,26214.0,423,Charlotte Douglas Intl,35.214,-80.943139,Dallas Fort Worth Intl,32.896828,-97.037997
79,DEN,DFW,8268,76129.0,1254,Denver Intl,39.861655999999996,-104.67317800000001,Dallas Fort Worth Intl,32.896828,-97.037997
80,DTW,DFW,2799,21566.0,401,Detroit Metro Wayne Co,42.212444,-83.353389,Dallas Fort Worth Intl,32.896828,-97.037997
81,EWR,DFW,3729,55521.0,766,Newark Liberty Intl,40.6925,-74.168667,Dallas Fort Worth Intl,32.896828,-97.037997
82,IAH,DFW,5539,54448.0,787,George Bush Intercontinental,29.984433000000003,-95.341442,Dallas Fort Worth Intl,32.896828,-97.037997
83,JFK,DFW,834,16981.0,208,John F Kennedy Intl,40.639751000000004,-73.778925,Dallas Fort Worth Intl,32.896828,-97.037997
84,LAS,DFW,4959,65506.0,847,Mc Carran Intl,36.080056,-115.15225,Dallas Fort Worth Intl,32.896828,-97.037997
85,LAX,DFW,6571,68272.0,1100,Los Angeles Intl,33.942536,-118.408075,Dallas Fort Worth Intl,32.896828,-97.037997
86,LGA,DFW,5372,50736.0,847,La Guardia,40.777245,-73.872608,Dallas Fort Worth Intl,32.896828,-97.037997
87,MCO,DFW,4114,46880.0,722,Orlando Intl,28.429394,-81.308994,Dallas Fort Worth Intl,32.896828,-97.037997
88,MSP,DFW,2851,20611.0,388,Minneapolis St Paul Intl,44.881956,-93.221767,Dallas Fort Worth Intl,32.896828,-97.037997
89,ORD,DFW,8093,130323.0,1861,Chicago Ohare Intl,41.978603,-87.904842,Dallas Fort Worth Intl,32.896828,-97.037997
90,PHX,DFW,5387,32056.0,605,Phoenix Sky Harbor Intl,33.434278000000006,-112.011583,Dallas Fort Worth Intl,32.896828,-97.037997
91,SEA,DFW,3917,45656.0,773,Seattle Tacoma Intl,47.449,-122.309306,Dallas Fort Worth Intl,32.896828,-97.037997
92,SFO,DFW,3487,52161.0,720,San Francisco Intl,37.618972,-122.374889,Dallas Fort Worth Intl,32.896828,-97.037997
93,SLC,DFW,3149,21360.0,358,Salt Lake City Intl,40.788389,-111.977772,Dallas Fort Worth Intl,32.896828,-97.037997
94,ATL,DTW,5612,57200.0,908,Hartsfield Jackson Atlanta Intl,33.636719,-84.428067,Detroit Metro Wayne Co,42.212444,-83.353389
95,BOS,DTW,2306,18854.0,309,General Edward Lawrence Logan Intl,42.364346999999995,-71.00518100000001,Detroit Metro Wayne Co,42.212444,-83.353389
96,BWI,DTW,3105,32499.0,443,Baltimore Washington Intl,39.175360999999995,-76.66833299999999,Detroit Metro Wayne Co,42.212444,-83.353389
97,CLT,DTW,2701,19564.0,331,Charlotte Douglas Intl,35.214,-80.943139,Detroit Metro Wayne Co,42.212444,-83.353389
98,DEN,DTW,2913,22589.0,383,Denver Intl,39.861655999999996,-104.67317800000001,Detroit Metro Wayne Co,42.212444,-83.353389
99,DFW,DTW,2792,30084.0,496,Dallas Fort Worth Intl,32.896828,-97.037997,Detroit Metro Wayne Co,42.212444,-83.353389
100,EWR,DTW,4419,49703.0,800,Newark Liberty Intl,40.6925,-74.168667,Detroit Metro Wayne Co,42.212444,-83.353389
101,IAH,DTW,2742,20204.0,296,George Bush Intercontinental,29.984433000000003,-95.341442,Detroit Metro Wayne Co,42.212444,-83.353389
102,JFK,DTW,1848,24690.0,353,John F Kennedy Intl,40.639751000000004,-73.778925,Detroit Metro Wayne Co,42.212444,-83.353389
103,LAS,DTW,2036,16509.0,291,Mc Carran Intl,36.080056,-115.15225,Detroit Metro Wayne Co,42.212444,-83.353389
104,LAX,DTW,1972,6761.0,153,Los Angeles Intl,33.942536,-118.408075,Detroit Metro Wayne Co,42.212444,-83.353389
105,LGA,DTW,4601,41191.0,761,La Guardia,40.777245,-73.872608,Detroit Metro Wayne Co,42.212444,-83.353389
106,MCO,DTW,3477,26969.0,451,Orlando Intl,28.429394,-81.308994,Detroit Metro Wayne Co,42.212444,-83.353389
107,MSP,DTW,5459,27047.0,552,Minneapolis St Paul Intl,44.881956,-93.221767,Detroit Metro Wayne Co,42.212444,-83.353389
108,ORD,DTW,7602,103799.0,1563,Chicago Ohare Intl,41.978603,-87.904842,Detroit Metro Wayne Co,42.212444,-83.353389
109,PHX,DTW,2929,16568.0,332,Phoenix Sky Harbor Intl,33.434278000000006,-112.011583,Detroit Metro Wayne Co,42.212444,-83.353389
110,SEA,DTW,1172,10007.0,142,Seattle Tacoma Intl,47.449,-122.309306,Detroit Metro Wayne Co,42.212444,-83.353389
111,SFO,DTW,1160,2557.0,104,San Francisco Intl,37.618972,-122.374889,Detroit Metro Wayne Co,42.212444,-83.353389
112,SLC,DTW,573,534.0,32,Salt Lake City Intl,40.788389,-111.977772,Detroit Metro Wayne Co,42.212444,-83.353389
113,ATL,EWR,8028,184141.0,2350,Hartsfield Jackson Atlanta Intl,33.636719,-84.428067,Newark Liberty Intl,40.6925,-74.168667
114,BOS,EWR,3883,93208.0,1128,General Edward Lawrence Logan Intl,42.364346999999995,-71.00518100000001,Newark Liberty Intl,40.6925,-74.168667
115,BWI,EWR,507,12377.0,154,Baltimore Washington Intl,39.175360999999995,-76.66833299999999,Newark Liberty Intl,40.6925,-74.168667
116,CLT,EWR,5953,140958.0,1796,Charlotte Douglas Intl,35.214,-80.943139,Newark Liberty Intl,40.6925,-74.168667
117,DEN,EWR,2189,67257.0,812,Denver Intl,39.861655999999996,-104.67317800000001,Newark Liberty Intl,40.6925,-74.168667
118,DFW,EWR,3728,91219.0,1179,Dallas Fort Worth Intl,32.896828,-97.037997,Newark Liberty Intl,40.6925,-74.168667
119,DTW,EWR,4374,103371.0,1321,Detroit Metro Wayne Co,42.212444,-83.353389,Newark Liberty Intl,40.6925,-74.168667
120,IAH,EWR,3970,68104.0,876,George Bush Intercontinental,29.984433000000003,-95.341442,Newark Liberty Intl,40.6925,-74.168667
121,LAS,EWR,2341,32445.0,456,Mc Carran Intl,36.080056,-115.15225,Newark Liberty Intl,40.6925,-74.168667
122,LAX,EWR,3249,60049.0,828,Los Angeles Intl,33.942536,-118.408075,Newark Liberty Intl,40.6925,-74.168667
123,MCO,EWR,4977,120322.0,1559,Orlando Intl,28.429394,-81.308994,Newark Liberty Intl,40.6925,-74.168667
124,MSP,EWR,3144,73149.0,976,Minneapolis St Paul Intl,44.881956,-93.221767,Newark Liberty Intl,40.6925,-74.168667
125,ORD,EWR,7174,221793.0,2621,Chicago Ohare Intl,41.978603,-87.904842,Newark Liberty Intl,40.6925,-74.168667
126,PHX,EWR,2579,43826.0,548,Phoenix Sky Harbor Intl,33.434278000000006,-112.011583,Newark Liberty Intl,40.6925,-74.168667
127,SEA,EWR,2026,30163.0,418,Seattle Tacoma Intl,47.449,-122.309306,Newark Liberty Intl,40.6925,-74.168667
128,SFO,EWR,3137,59753.0,812,San Francisco Intl,37.618972,-122.374889,Newark Liberty Intl,40.6925,-74.168667
129,SLC,EWR,812,13482.0,192,Salt Lake City Intl,40.788389,-111.977772,Newark Liberty Intl,40.6925,-74.168667
130,ATL,IAH,5268,54479.0,800,Hartsfield Jackson Atlanta Intl,33.636719,-84.428067,George Bush Intercontinental,29.984433000000003,-95.341442
131,BOS,IAH,1800,25038.0,311,General Edward Lawrence Logan Intl,42.364346999999995,-71.00518100000001,George Bush Intercontinental,29.984433000000003,-95.341442
132,BWI,IAH,1728,8539.0,157,Baltimore Washington Intl,39.175360999999995,-76.66833299999999,George Bush Intercontinental,29.984433000000003,-95.341442
133,CLT,IAH,3711,35054.0,501,Charlotte Douglas Intl,35.214,-80.943139,George Bush Intercontinental,29.984433000000003,-95.341442
134,DEN,IAH,4788,43758.0,653,Denver Intl,39.861655999999996,-104.67317800000001,George Bush Intercontinental,29.984433000000003,-95.341442
135,DFW,IAH,5526,44280.0,728,Dallas Fort Worth Intl,32.896828,-97.037997,George Bush Intercontinental,29.984433000000003,-95.341442
136,DTW,IAH,2740,19452.0,317,Detroit Metro Wayne Co,42.212444,-83.353389,George Bush Intercontinental,29.984433000000003,-95.341442
137,EWR,IAH,3989,69142.0,949,Newark Liberty Intl,40.6925,-74.168667,George Bush Intercontinental,29.984433000000003,-95.341442
138,JFK,IAH,972,12961.0,190,John F Kennedy Intl,40.639751000000004,-73.778925,George Bush Intercontinental,29.984433000000003,-95.341442
139,LAS,IAH,2678,18760.0,263,Mc Carran Intl,36.080056,-115.15225,George Bush Intercontinental,29.984433000000003,-95.341442
140,LAX,IAH,3849,43978.0,538,Los Angeles Intl,33.942536,-118.408075,George Bush Intercontinental,29.984433000000003,-95.341442
141,LGA,IAH,3418,50384.0,631,La Guardia,40.777245,-73.872608,George Bush Intercontinental,29.984433000000003,-95.341442
142,MCO,IAH,2499,17963.0,284,Orlando Intl,28.429394,-81.308994,George Bush Intercontinental,29.984433000000003,-95.341442
143,MSP,IAH,2451,18040.0,274,Minneapolis St Paul Intl,44.881956,-93.221767,George Bush Intercontinental,29.984433000000003,-95.341442
144,ORD,IAH,5463,94477.0,1211,Chicago Ohare Intl,41.978603,-87.904842,George Bush Intercontinental,29.984433000000003,-95.341442
145,PHX,IAH,4197,33160.0,494,Phoenix Sky Harbor Intl,33.434278000000006,-112.011583,George Bush Intercontinental,29.984433000000003,-95.341442
146,SEA,IAH,2395,29247.0,371,Seattle Tacoma Intl,47.449,-122.309306,George Bush Intercontinental,29.984433000000003,-95.341442
147,SFO,IAH,2660,29419.0,392,San Francisco Intl,37.618972,-122.374889,George Bush Intercontinental,29.984433000000003,-95.341442
148,SLC,IAH,2698,20784.0,330,Salt Lake City Intl,40.788389,-111.977772,George Bush Intercontinental,29.984433000000003,-95.341442
149,ATL,JFK,1915,39223.0,552,Hartsfield Jackson Atlanta Intl,33.636719,-84.428067,John F Kennedy Intl,40.639751000000004,-73.778925
150,BOS,JFK,7372,105166.0,1430,General Edward Lawrence Logan Intl,42.364346999999995,-71.00518100000001,John F Kennedy Intl,40.639751000000004,-73.778925
151,BWI,JFK,1134,19581.0,268,Baltimore Washington Intl,39.175360999999995,-76.66833299999999,John F Kennedy Intl,40.639751000000004,-73.778925
152,CLT,JFK,1866,38927.0,459,Charlotte Douglas Intl,35.214,-80.943139,John F Kennedy Intl,40.639751000000004,-73.778925
153,DEN,JFK,1084,12997.0,206,Denver Intl,39.861655999999996,-104.67317800000001,John F Kennedy Intl,40.639751000000004,-73.778925
154,DFW,JFK,833,13773.0,204,Dallas Fort Worth Intl,32.896828,-97.037997,John F Kennedy Intl,40.639751000000004,-73.778925
155,DTW,JFK,1754,25194.0,358,Detroit Metro Wayne Co,42.212444,-83.353389,John F Kennedy Intl,40.639751000000004,-73.778925
156,IAH,JFK,969,19945.0,255,George Bush Intercontinental,29.984433000000003,-95.341442,John F Kennedy Intl,40.639751000000004,-73.778925
157,LAS,JFK,4481,51508.0,724,Mc Carran Intl,36.080056,-115.15225,John F Kennedy Intl,40.639751000000004,-73.778925
158,LAX,JFK,8058,99521.0,1421,Los Angeles Intl,33.942536,-118.408075,John F Kennedy Intl,40.639751000000004,-73.778925
159,MCO,JFK,5371,79486.0,1076,Orlando Intl,28.429394,-81.308994,John F Kennedy Intl,40.639751000000004,-73.778925
160,MSP,JFK,1441,23156.0,320,Minneapolis St Paul Intl,44.881956,-93.221767,John F Kennedy Intl,40.639751000000004,-73.778925
161,ORD,JFK,3684,70701.0,858,Chicago Ohare Intl,41.978603,-87.904842,John F Kennedy Intl,40.639751000000004,-73.778925
162,PHX,JFK,2256,32216.0,446,Phoenix Sky Harbor Intl,33.434278000000006,-112.011583,John F Kennedy Intl,40.639751000000004,-73.778925
163,SEA,JFK,1852,10479.0,204,Seattle Tacoma Intl,47.449,-122.309306,John F Kennedy Intl,40.639751000000004,-73.778925
164,SFO,JFK,6971,108577.0,1424,San Francisco Intl,37.618972,-122.374889,John F Kennedy Intl,40.639751000000004,-73.778925
165,SLC,JFK,1784,9782.0,188,Salt Lake City Intl,40.788389,-111.977772,John F Kennedy Intl,40.639751000000004,-73.778925
166,ATL,LAS,4766,48931.0,748,Hartsfield Jackson Atlanta Intl,33.636719,-84.428067,Mc Carran Intl,36.080056,-115.15225
167,BOS,LAS,1383,12412.0,178,General Edward Lawrence Logan Intl,42.364346999999995,-71.00518100000001,Mc Carran Intl,36.080056,-115.15225
168,BWI,LAS,1626,16144.0,219,Baltimore Washington Intl,39.175360999999995,-76.66833299999999,Mc Carran Intl,36.080056,-115.15225
169,CLT,LAS,1734,16962.0,257,Charlotte Douglas Intl,35.214,-80.943139,Mc Carran Intl,36.080056,-115.15225
170,DEN,LAS,8147,94650.0,1509,Denver Intl,39.861655999999996,-104.67317800000001,Mc Carran Intl,36.080056,-115.15225
171,DFW,LAS,4956,59597.0,945,Dallas Fort Worth Intl,32.896828,-97.037997,Mc Carran Intl,36.080056,-115.15225
172,DTW,LAS,2038,15124.0,271,Detroit Metro Wayne Co,42.212444,-83.353389,Mc Carran Intl,36.080056,-115.15225
173,EWR,LAS,2350,44524.0,572,Newark Liberty Intl,40.6925,-74.168667,Mc Carran Intl,36.080056,-115.15225
174,IAH,LAS,2682,30665.0,395,George Bush Intercontinental,29.984433000000003,-95.341442,Mc Carran Intl,36.080056,-115.15225
175,JFK,LAS,4471,51971.0,724,John F Kennedy Intl,40.639751000000004,-73.778925,Mc Carran Intl,36.080056,-115.15225
176,LAX,LAS,11773,91571.0,1595,Los Angeles Intl,33.942536,-118.408075,Mc Carran Intl,36.080056,-115.15225
177,MCO,LAS,1077,6110.0,110,Orlando Intl,28.429394,-81.308994,Mc Carran Intl,36.080056,-115.15225
178,MSP,LAS,2461,14536.0,277,Minneapolis St Paul Intl,44.881956,-93.221767,Mc Carran Intl,36.080056,-115.15225
179,ORD,LAS,5257,85292.0,1202,Chicago Ohare Intl,41.978603,-87.904842,Mc Carran Intl,36.080056,-115.15225
180,PHX,LAS,10337,97181.0,1601,Phoenix Sky Harbor Intl,33.434278000000006,-112.011583,Mc Carran Intl,36.080056,-115.15225
181,SEA,LAS,5051,40789.0,732,Seattle Tacoma Intl,47.449,-122.309306,Mc Carran Intl,36.080056,-115.15225
182,SFO,LAS,7007,85328.0,1357,San Francisco Intl,37.618972,-122.374889,Mc Carran Intl,36.080056,-115.15225
183,SLC,LAS,5373,41636.0,646,Salt Lake City Intl,40.788389,-111.977772,Mc Carran Intl,36.080056,-115.15225
184,ATL,LAX,5406,62350.0,852,Hartsfield Jackson Atlanta Intl,33.636719,-84.428067,Los Angeles Intl,33.942536,-118.408075
185,BOS,LAX,2234,29928.0,411,General Edward Lawrence Logan Intl,42.364346999999995,-71.00518100000001,Los Angeles Intl,33.942536,-118.408075
186,BWI,LAX,898,13260.0,169,Baltimore Washington Intl,39.175360999999995,-76.66833299999999,Los Angeles Intl,33.942536,-118.408075
187,CLT,LAX,1458,11712.0,158,Charlotte Douglas Intl,35.214,-80.943139,Los Angeles Intl,33.942536,-118.408075
188,DEN,LAX,8811,97617.0,1507,Denver Intl,39.861655999999996,-104.67317800000001,Los Angeles Intl,33.942536,-118.408075
189,DFW,LAX,6571,86722.0,1344,Dallas Fort Worth Intl,32.896828,-97.037997,Los Angeles Intl,33.942536,-118.408075
190,DTW,LAX,1608,19408.0,292,Detroit Metro Wayne Co,42.212444,-83.353389,Los Angeles Intl,33.942536,-118.408075
191,EWR,LAX,3239,59664.0,766,Newark Liberty Intl,40.6925,-74.168667,Los Angeles Intl,33.942536,-118.408075
192,IAH,LAX,3867,50578.0,631,George Bush Intercontinental,29.984433000000003,-95.341442,Los Angeles Intl,33.942536,-118.408075
193,JFK,LAX,8078,106923.0,1388,John F Kennedy Intl,40.639751000000004,-73.778925,Los Angeles Intl,33.942536,-118.408075
194,LAS,LAX,11729,106858.0,1850,Mc Carran Intl,36.080056,-115.15225,Los Angeles Intl,33.942536,-118.408075
195,MCO,LAX,1725,16770.0,253,Orlando Intl,28.429394,-81.308994,Los Angeles Intl,33.942536,-118.408075
196,MSP,LAX,2389,18953.0,308,Minneapolis St Paul Intl,44.881956,-93.221767,Los Angeles Intl,33.942536,-118.408075
197,ORD,LAX,6974,132421.0,1731,Chicago Ohare Intl,41.978603,-87.904842,Los Angeles Intl,33.942536,-118.408075
198,PHX,LAX,9992,80101.0,1461,Phoenix Sky Harbor Intl,33.434278000000006,-112.011583,Los Angeles Intl,33.942536,-118.408075
199,SEA,LAX,6865,46669.0,863,Seattle Tacoma Intl,47.449,-122.309306,Los Angeles Intl,33.942536,-118.408075
200,SFO,LAX,13788,169062.0,2571,San Francisco Intl,37.618972,-122.374889,Los Angeles Intl,33.942536,-118.408075
201,SLC,LAX,5178,34928.0,597,Salt Lake City Intl,40.788389,-111.977772,Los Angeles Intl,33.942536,-118.408075
202,ATL,LGA,10506,169451.0,2442,Hartsfield Jackson Atlanta Intl,33.636719,-84.428067,La Guardia,40.777245,-73.872608
203,BOS,LGA,12029,46887.0,1032,General Edward Lawrence Logan Intl,42.364346999999995,-71.00518100000001,La Guardia,40.777245,-73.872608
204,BWI,LGA,7,405.0,5,Baltimore Washington Intl,39.175360999999995,-76.66833299999999,La Guardia,40.777245,-73.872608
205,CLT,LGA,5339,67268.0,1069,Charlotte Douglas Intl,35.214,-80.943139,La Guardia,40.777245,-73.872608
206,DEN,LGA,3051,68057.0,981,Denver Intl,39.861655999999996,-104.67317800000001,La Guardia,40.777245,-73.872608
207,DFW,LGA,5365,99337.0,1522,Dallas Fort Worth Intl,32.896828,-97.037997,La Guardia,40.777245,-73.872608
208,DTW,LGA,4594,67458.0,1055,Detroit Metro Wayne Co,42.212444,-83.353389,La Guardia,40.777245,-73.872608
209,EWR,LGA,1,,0,Newark Liberty Intl,40.6925,-74.168667,La Guardia,40.777245,-73.872608
210,IAH,LGA,3399,77491.0,1014,George Bush Intercontinental,29.984433000000003,-95.341442,La Guardia,40.777245,-73.872608
211,JFK,LGA,2,212.0,2,John F Kennedy Intl,40.639751000000004,-73.778925,La Guardia,40.777245,-73.872608
212,MCO,LGA,3156,62155.0,870,Orlando Intl,28.429394,-81.308994,La Guardia,40.777245,-73.872608
213,MSP,LGA,2723,41415.0,728,Minneapolis St Paul Intl,44.881956,-93.221767,La Guardia,40.777245,-73.872608
214,ORD,LGA,10770,226044.0,3105,Chicago Ohare Intl,41.978603,-87.904842,La Guardia,40.777245,-73.872608
215,SLC,LGA,24,153.0,2,Salt Lake City Intl,40.788389,-111.977772,La Guardia,40.777245,-73.872608
216,ATL,MCO,9613,99792.0,1517,Hartsfield Jackson Atlanta Intl,33.636719,-84.428067,Orlando Intl,28.429394,-81.308994
217,BOS,MCO,3474,36079.0,534,General Edward Lawrence Logan Intl,42.364346999999995,-71.00518100000001,Orlando Intl,28.429394,-81.308994
218,BWI,MCO,4926,39374.0,616,Baltimore Washington Intl,39.175360999999995,-76.66833299999999,Orlando Intl,28.429394,-81.308994
219,CLT,MCO,3277,29429.0,453,Charlotte Douglas Intl,35.214,-80.943139,Orlando Intl,28.429394,-81.308994
220,DEN,MCO,3015,27751.0,467,Denver Intl,39.861655999999996,-104.67317800000001,Orlando Intl,28.429394,-81.308994
221,DFW,MCO,4114,46164.0,761,Dallas Fort Worth Intl,32.896828,-97.037997,Orlando Intl,28.429394,-81.308994
222,DTW,MCO,3481,29782.0,478,Detroit Metro Wayne Co,42.212444,-83.353389,Orlando Intl,28.429394,-81.308994
223,EWR,MCO,4978,90439.0,1155,Newark Liberty Intl,40.6925,-74.168667,Orlando Intl,28.429394,-81.308994
224,IAH,MCO,2494,26763.0,330,George Bush Intercontinental,29.984433000000003,-95.341442,Orlando Intl,28.429394,-81.308994
225,JFK,MCO,5373,67898.0,922,John F Kennedy Intl,40.639751000000004,-73.778925,Orlando Intl,28.429394,-81.308994
226,LAS,MCO,1076,14091.0,236,Mc Carran Intl,36.080056,-115.15225,Orlando Intl,28.429394,-81.308994
227,LAX,MCO,1725,11793.0,219,Los Angeles Intl,33.942536,-118.408075,Orlando Intl,28.429394,-81.308994
228,LGA,MCO,3158,41527.0,588,La Guardia,40.777245,-73.872608,Orlando Intl,28.429394,-81.308994
229,MSP,MCO,1931,9605.0,197,Minneapolis St Paul Intl,44.881956,-93.221767,Orlando Intl,28.429394,-81.308994
230,ORD,MCO,3798,65130.0,946,Chicago Ohare Intl,41.978603,-87.904842,Orlando Intl,28.429394,-81.308994
231,PHX,MCO,1039,6637.0,103,Phoenix Sky Harbor Intl,33.434278000000006,-112.011583,Orlando Intl,28.429394,-81.308994
232,SEA,MCO,731,2117.0,45,Seattle Tacoma Intl,47.449,-122.309306,Orlando Intl,28.429394,-81.308994
233,SFO,MCO,366,6973.0,99,San Francisco Intl,37.618972,-122.374889,Orlando Intl,28.429394,-81.308994
234,SLC,MCO,687,2751.0,54,Salt Lake City Intl,40.788389,-111.977772,Orlando Intl,28.429394,-81.308994
235,ATL,MSP,5368,50696.0,818,Hartsfield Jackson Atlanta Intl,33.636719,-84.428067,Minneapolis St Paul Intl,44.881956,-93.221767
236,BOS,MSP,1635,9103.0,174,General Edward Lawrence Logan Intl,42.364346999999995,-71.00518100000001,Minneapolis St Paul Intl,44.881956,-93.221767
237,BWI,MSP,974,5448.0,106,Baltimore Washington Intl,39.175360999999995,-76.66833299999999,Minneapolis St Paul Intl,44.881956,-93.221767
238,CLT,MSP,1816,10762.0,182,Charlotte Douglas Intl,35.214,-80.943139,Minneapolis St Paul Intl,44.881956,-93.221767
239,DEN,MSP,5011,40181.0,703,Denver Intl,39.861655999999996,-104.67317800000001,Minneapolis St Paul Intl,44.881956,-93.221767
240,DFW,MSP,2810,25782.0,430,Dallas Fort Worth Intl,32.896828,-97.037997,Minneapolis St Paul Intl,44.881956,-93.221767
241,DTW,MSP,4947,41706.0,709,Detroit Metro Wayne Co,42.212444,-83.353389,Minneapolis St Paul Intl,44.881956,-93.221767
242,EWR,MSP,3103,39620.0,586,Newark Liberty Intl,40.6925,-74.168667,Minneapolis St Paul Intl,44.881956,-93.221767
243,IAH,MSP,2466,26028.0,350,George Bush Intercontinental,29.984433000000003,-95.341442,Minneapolis St Paul Intl,44.881956,-93.221767
244,JFK,MSP,1441,28440.0,337,John F Kennedy Intl,40.639751000000004,-73.778925,Minneapolis St Paul Intl,44.881956,-93.221767
245,LAS,MSP,2464,16949.0,261,Mc Carran Intl,36.080056,-115.15225,Minneapolis St Paul Intl,44.881956,-93.221767
246,LAX,MSP,2392,13016.0,206,Los Angeles Intl,33.942536,-118.408075,Minneapolis St Paul Intl,44.881956,-93.221767
247,LGA,MSP,2719,25094.0,421,La Guardia,40.777245,-73.872608,Minneapolis St Paul Intl,44.881956,-93.221767
248,MCO,MSP,1929,11296.0,202,Orlando Intl,28.429394,-81.308994,Minneapolis St Paul Intl,44.881956,-93.221767
249,ORD,MSP,9688,133851.0,1937,Chicago Ohare Intl,41.978603,-87.904842,Minneapolis St Paul Intl,44.881956,-93.221767
250,PHX,MSP,3508,20795.0,409,Phoenix Sky Harbor Intl,33.434278000000006,-112.011583,Minneapolis St Paul Intl,44.881956,-93.221767
251,SEA,MSP,2474,21154.0,273,Seattle Tacoma Intl,47.449,-122.309306,Minneapolis St Paul Intl,44.881956,-93.221767
252,SFO,MSP,1984,6784.0,207,San Francisco Intl,37.618972,-122.374889,Minneapolis St Paul Intl,44.881956,-93.221767
253,SLC,MSP,2191,9199.0,210,Salt Lake City Intl,40.788389,-111.977772,Minneapolis St Paul Intl,44.881956,-93.221767
254,ATL,ORD,7677,127586.0,1688,Hartsfield Jackson Atlanta Intl,33.636719,-84.428067,Chicago Ohare Intl,41.978603,-87.904842
255,BOS,ORD,7085,85526.0,1254,General Edward Lawrence Logan Intl,42.364346999999995,-71.00518100000001,Chicago Ohare Intl,41.978603,-87.904842
256,BWI,ORD,3545,47420.0,651,Baltimore Washington Intl,39.175360999999995,-76.66833299999999,Chicago Ohare Intl,41.978603,-87.904842
257,CLT,ORD,5639,81203.0,1162,Charlotte Douglas Intl,35.214,-80.943139,Chicago Ohare Intl,41.978603,-87.904842
258,DEN,ORD,6051,120644.0,1609,Denver Intl,39.861655999999996,-104.67317800000001,Chicago Ohare Intl,41.978603,-87.904842
259,DFW,ORD,8165,155819.0,2183,Dallas Fort Worth Intl,32.896828,-97.037997,Chicago Ohare Intl,41.978603,-87.904842
260,DTW,ORD,7553,99074.0,1429,Detroit Metro Wayne Co,42.212444,-83.353389,Chicago Ohare Intl,41.978603,-87.904842
261,EWR,ORD,7505,154100.0,1853,Newark Liberty Intl,40.6925,-74.168667,Chicago Ohare Intl,41.978603,-87.904842
262,IAH,ORD,5651,103599.0,1329,George Bush Intercontinental,29.984433000000003,-95.341442,Chicago Ohare Intl,41.978603,-87.904842
263,JFK,ORD,3672,82706.0,967,John F Kennedy Intl,40.639751000000004,-73.778925,Chicago Ohare Intl,41.978603,-87.904842
264,LAS,ORD,5235,86534.0,1208,Mc Carran Intl,36.080056,-115.15225,Chicago Ohare Intl,41.978603,-87.904842
265,LAX,ORD,7333,119215.0,1696,Los Angeles Intl,33.942536,-118.408075,Chicago Ohare Intl,41.978603,-87.904842
266,LGA,ORD,10862,175950.0,2433,La Guardia,40.777245,-73.872608,Chicago Ohare Intl,41.978603,-87.904842
267,MCO,ORD,3978,56523.0,834,Orlando Intl,28.429394,-81.308994,Chicago Ohare Intl,41.978603,-87.904842
268,MSP,ORD,9356,103325.0,1682,Minneapolis St Paul Intl,44.881956,-93.221767,Chicago Ohare Intl,41.978603,-87.904842
269,PHX,ORD,5130,82394.0,1131,Phoenix Sky Harbor Intl,33.434278000000006,-112.011583,Chicago Ohare Intl,41.978603,-87.904842
270,SEA,ORD,4608,77244.0,995,Seattle Tacoma Intl,47.449,-122.309306,Chicago Ohare Intl,41.978603,-87.904842
271,SFO,ORD,5746,100756.0,1346,San Francisco Intl,37.618972,-122.374889,Chicago Ohare Intl,41.978603,-87.904842
272,SLC,ORD,2863,38062.0,536,Salt Lake City Intl,40.788389,-111.977772,Chicago Ohare Intl,41.978603,-87.904842
273,ATL,PHX,4603,42121.0,663,Hartsfield Jackson Atlanta Intl,33.636719,-84.428067,Phoenix Sky Harbor Intl,33.434278000000006,-112.011583
274,BOS,PHX,1069,6278.0,95,General Edward Lawrence Logan Intl,42.364346999999995,-71.00518100000001,Phoenix Sky Harbor Intl,33.434278000000006,-112.011583
275,BWI,PHX,2098,18814.0,268,Baltimore Washington Intl,39.175360999999995,-76.66833299999999,Phoenix Sky Harbor Intl,33.434278000000006,-112.011583
276,CLT,PHX,2186,24088.0,355,Charlotte Douglas Intl,35.214,-80.943139,Phoenix Sky Harbor Intl,33.434278000000006,-112.011583
277,DEN,PHX,8391,68989.0,1206,Denver Intl,39.861655999999996,-104.67317800000001,Phoenix Sky Harbor Intl,33.434278000000006,-112.011583
278,DFW,PHX,5388,49138.0,807,Dallas Fort Worth Intl,32.896828,-97.037997,Phoenix Sky Harbor Intl,33.434278000000006,-112.011583
279,DTW,PHX,2928,22344.0,371,Detroit Metro Wayne Co,42.212444,-83.353389,Phoenix Sky Harbor Intl,33.434278000000006,-112.011583
280,EWR,PHX,2601,37697.0,561,Newark Liberty Intl,40.6925,-74.168667,Phoenix Sky Harbor Intl,33.434278000000006,-112.011583
281,IAH,PHX,4176,33724.0,510,George Bush Intercontinental,29.984433000000003,-95.341442,Phoenix Sky Harbor Intl,33.434278000000006,-112.011583
282,JFK,PHX,2254,28244.0,362,John F Kennedy Intl,40.639751000000004,-73.778925,Phoenix Sky Harbor Intl,33.434278000000006,-112.011583
283,LAS,PHX,10626,78897.0,1392,Mc Carran Intl,36.080056,-115.15225,Phoenix Sky Harbor Intl,33.434278000000006,-112.011583
284,LAX,PHX,9897,64854.0,1212,Los Angeles Intl,33.942536,-118.408075,Phoenix Sky Harbor Intl,33.434278000000006,-112.011583
285,MCO,PHX,1038,7657.0,129,Orlando Intl,28.429394,-81.308994,Phoenix Sky Harbor Intl,33.434278000000006,-112.011583
286,MSP,PHX,3515,17352.0,368,Minneapolis St Paul Intl,44.881956,-93.221767,Phoenix Sky Harbor Intl,33.434278000000006,-112.011583
287,ORD,PHX,5124,77545.0,1077,Chicago Ohare Intl,41.978603,-87.904842,Phoenix Sky Harbor Intl,33.434278000000006,-112.011583
288,SEA,PHX,5062,29391.0,593,Seattle Tacoma Intl,47.449,-122.309306,Phoenix Sky Harbor Intl,33.434278000000006,-112.011583
289,SFO,PHX,4870,32235.0,627,San Francisco Intl,37.618972,-122.374889,Phoenix Sky Harbor Intl,33.434278000000006,-112.011583
290,SLC,PHX,7168,41984.0,788,Salt Lake City Intl,40.788389,-111.977772,Phoenix Sky Harbor Intl,33.434278000000006,-112.011583
291,ATL,SEA,2574,21271.0,340,Hartsfield Jackson Atlanta Intl,33.636719,-84.428067,Seattle Tacoma Intl,47.449,-122.309306
292,BOS,SEA,979,7921.0,141,General Edward Lawrence Logan Intl,42.364346999999995,-71.00518100000001,Seattle Tacoma Intl,47.449,-122.309306
293,BWI,SEA,242,2474.0,39,Baltimore Washington Intl,39.175360999999995,-76.66833299999999,Seattle Tacoma Intl,47.449,-122.309306
294,CLT,SEA,481,5205.0,77,Charlotte Douglas Intl,35.214,-80.943139,Seattle Tacoma Intl,47.449,-122.309306
295,DEN,SEA,6414,72629.0,1125,Denver Intl,39.861655999999996,-104.67317800000001,Seattle Tacoma Intl,47.449,-122.309306
296,DFW,SEA,3915,46918.0,754,Dallas Fort Worth Intl,32.896828,-97.037997,Seattle Tacoma Intl,47.449,-122.309306
297,DTW,SEA,1172,12100.0,190,Detroit Metro Wayne Co,42.212444,-83.353389,Seattle Tacoma Intl,47.449,-122.309306
298,EWR,SEA,2030,35177.0,485,Newark Liberty Intl,40.6925,-74.168667,Seattle Tacoma Intl,47.449,-122.309306
299,IAH,SEA,2393,34114.0,441,George Bush Intercontinental,29.984433000000003,-95.341442,Seattle Tacoma Intl,47.449,-122.309306
300,JFK,SEA,1855,27450.0,352,John F Kennedy Intl,40.639751000000004,-73.778925,Seattle Tacoma Intl,47.449,-122.309306
301,LAS,SEA,5065,44392.0,762,Mc Carran Intl,36.080056,-115.15225,Seattle Tacoma Intl,47.449,-122.309306
302,LAX,SEA,6876,45972.0,836,Los Angeles Intl,33.942536,-118.408075,Seattle Tacoma Intl,47.449,-122.309306
303,MCO,SEA,731,6223.0,83,Orlando Intl,28.429394,-81.308994,Seattle Tacoma Intl,47.449,-122.309306
304,MSP,SEA,2475,22410.0,371,Minneapolis St Paul Intl,44.881956,-93.221767,Seattle Tacoma Intl,47.449,-122.309306
305,ORD,SEA,4802,89614.0,1176,Chicago Ohare Intl,41.978603,-87.904842,Seattle Tacoma Intl,47.449,-122.309306
306,PHX,SEA,5072,45521.0,747,Phoenix Sky Harbor Intl,33.434278000000006,-112.011583,Seattle Tacoma Intl,47.449,-122.309306
307,SFO,SEA,5414,80216.0,1187,San Francisco Intl,37.618972,-122.374889,Seattle Tacoma Intl,47.449,-122.309306
308,SLC,SEA,3771,27569.0,450,Salt Lake City Intl,40.788389,-111.977772,Seattle Tacoma Intl,47.449,-122.309306
309,ATL,SFO,3462,38106.0,583,Hartsfield Jackson Atlanta Intl,33.636719,-84.428067,San Francisco Intl,37.618972,-122.374889
310,BOS,SFO,2668,28671.0,398,General Edward Lawrence Logan Intl,42.364346999999995,-71.00518100000001,San Francisco Intl,37.618972,-122.374889
311,BWI,SFO,366,947.0,29,Baltimore Washington Intl,39.175360999999995,-76.66833299999999,San Francisco Intl,37.618972,-122.374889
312,CLT,SFO,1427,14934.0,218,Charlotte Douglas Intl,35.214,-80.943139,San Francisco Intl,37.618972,-122.374889
313,DEN,SFO,5604,85781.0,1284,Denver Intl,39.861655999999996,-104.67317800000001,San Francisco Intl,37.618972,-122.374889
314,DFW,SFO,3486,60937.0,894,Dallas Fort Worth Intl,32.896828,-97.037997,San Francisco Intl,37.618972,-122.374889
315,DTW,SFO,1235,17048.0,260,Detroit Metro Wayne Co,42.212444,-83.353389,San Francisco Intl,37.618972,-122.374889
316,EWR,SFO,2777,47193.0,633,Newark Liberty Intl,40.6925,-74.168667,San Francisco Intl,37.618972,-122.374889
317,IAH,SFO,2655,41775.0,544,George Bush Intercontinental,29.984433000000003,-95.341442,San Francisco Intl,37.618972,-122.374889
318,JFK,SFO,6591,82983.0,1131,John F Kennedy Intl,40.639751000000004,-73.778925,San Francisco Intl,37.618972,-122.374889
319,LAS,SFO,6994,107149.0,1657,Mc Carran Intl,36.080056,-115.15225,San Francisco Intl,37.618972,-122.374889
320,LAX,SFO,13390,208841.0,3098,Los Angeles Intl,33.942536,-118.408075,San Francisco Intl,37.618972,-122.374889
321,MCO,SFO,366,2669.0,40,Orlando Intl,28.429394,-81.308994,San Francisco Intl,37.618972,-122.374889
322,MSP,SFO,1909,27641.0,431,Minneapolis St Paul Intl,44.881956,-93.221767,San Francisco Intl,37.618972,-122.374889
323,ORD,SFO,5524,105047.0,1381,Chicago Ohare Intl,41.978603,-87.904842,San Francisco Intl,37.618972,-122.374889
324,PHX,SFO,4884,69130.0,1103,Phoenix Sky Harbor Intl,33.434278000000006,-112.011583,San Francisco Intl,37.618972,-122.374889
325,SEA,SFO,5409,77386.0,1185,Seattle Tacoma Intl,47.449,-122.309306,San Francisco Intl,37.618972,-122.374889
326,SLC,SFO,3705,57086.0,841,Salt Lake City Intl,40.788389,-111.977772,San Francisco Intl,37.618972,-122.374889
327,ATL,SLC,2860,28293.0,446,Hartsfield Jackson Atlanta Intl,33.636719,-84.428067,Salt Lake City Intl,40.788389,-111.977772
328,BOS,SLC,707,5684.0,72,General Edward Lawrence Logan Intl,42.364346999999995,-71.00518100000001,Salt Lake City Intl,40.788389,-111.977772
329,BWI,SLC,727,4782.0,87,Baltimore Washington Intl,39.175360999999995,-76.66833299999999,Salt Lake City Intl,40.788389,-111.977772
330,CLT,SLC,212,661.0,13,Charlotte Douglas Intl,35.214,-80.943139,Salt Lake City Intl,40.788389,-111.977772
331,DEN,SLC,8905,74462.0,1260,Denver Intl,39.861655999999996,-104.67317800000001,Salt Lake City Intl,40.788389,-111.977772
332,DFW,SLC,3143,36477.0,551,Dallas Fort Worth Intl,32.896828,-97.037997,Salt Lake City Intl,40.788389,-111.977772
333,DTW,SLC,572,5710.0,83,Detroit Metro Wayne Co,42.212444,-83.353389,Salt Lake City Intl,40.788389,-111.977772
334,EWR,SLC,812,15448.0,184,Newark Liberty Intl,40.6925,-74.168667,Salt Lake City Intl,40.788389,-111.977772
335,IAH,SLC,2696,19546.0,319,George Bush Intercontinental,29.984433000000003,-95.341442,Salt Lake City Intl,40.788389,-111.977772
336,JFK,SLC,1795,20484.0,305,John F Kennedy Intl,40.639751000000004,-73.778925,Salt Lake City Intl,40.788389,-111.977772
337,LAS,SLC,5378,46855.0,775,Mc Carran Intl,36.080056,-115.15225,Salt Lake City Intl,40.788389,-111.977772
338,LAX,SLC,5178,36378.0,702,Los Angeles Intl,33.942536,-118.408075,Salt Lake City Intl,40.788389,-111.977772
339,LGA,SLC,24,26.0,0,La Guardia,40.777245,-73.872608,Salt Lake City Intl,40.788389,-111.977772
340,MCO,SLC,685,2315.0,59,Orlando Intl,28.429394,-81.308994,Salt Lake City Intl,40.788389,-111.977772
341,MSP,SLC,2197,13486.0,262,Minneapolis St Paul Intl,44.881956,-93.221767,Salt Lake City Intl,40.788389,-111.977772
342,ORD,SLC,2860,53946.0,705,Chicago Ohare Intl,41.978603,-87.904842,Salt Lake City Intl,40.788389,-111.977772
343,PHX,SLC,7177,49453.0,939,Phoenix Sky Harbor Intl,33.434278000000006,-112.011583,Salt Lake City Intl,40.788389,-111.977772
344,SEA,SLC,3774,34293.0,563,Seattle Tacoma Intl,47.449,-122.309306,Salt Lake City Intl,40.788389,-111.977772
345,SFO,SLC,4064,53437.0,827,San Francisco Intl,37.618972,-122.374889,Salt Lake City Intl,40.788389,-111.977772
346,BOS,ATL,5982,56275.0,811,General Edward Lawrence Logan Intl,42.364346999999995,-71.00518100000001,Hartsfield Jackson Atlanta Intl,33.636719,-84.428067
347,BWI,ATL,5972,53642.0,798,Baltimore Washington Intl,39.175360999999995,-76.66833299999999,Hartsfield Jackson Atlanta Intl,33.636719,-84.428067
348,CLT,ATL,6722,63858.0,1016,Charlotte Douglas Intl,35.214,-80.943139,Hartsfield Jackson Atlanta Intl,33.636719,-84.428067
349,DEN,ATL,5903,37861.0,706,Denver Intl,39.861655999999996,-104.67317800000001,Hartsfield Jackson Atlanta Intl,33.636719,-84.428067
350,DFW,ATL,9849,96914.0,1540,Dallas Fort Worth Intl,32.896828,-97.037997,Hartsfield Jackson Atlanta Intl,33.636719,-84.428067
351,DTW,ATL,5612,59830.0,885,Detroit Metro Wayne Co,42.212444,-83.353389,Hartsfield Jackson Atlanta Intl,33.636719,-84.428067
352,EWR,ATL,8060,140463.0,1786,Newark Liberty Intl,40.6925,-74.168667,Hartsfield Jackson Atlanta Intl,33.636719,-84.428067
353,IAH,ATL,4989,53921.0,782,George Bush Intercontinental,29.984433000000003,-95.341442,Hartsfield Jackson Atlanta Intl,33.636719,-84.428067
354,JFK,ATL,2279,36335.0,501,John F Kennedy Intl,40.639751000000004,-73.778925,Hartsfield Jackson Atlanta Intl,33.636719,-84.428067
355,LAS,ATL,4761,34913.0,567,Mc Carran Intl,36.080056,-115.15225,Hartsfield Jackson Atlanta Intl,33.636719,-84.428067
356,LAX,ATL,5402,46756.0,771,Los Angeles Intl,33.942536,-118.408075,Hartsfield Jackson Atlanta Intl,33.636719,-84.428067
357,LGA,ATL,10507,141618.0,2066,La Guardia,40.777245,-73.872608,Hartsfield Jackson Atlanta Intl,33.636719,-84.428067
358,MCO,ATL,9611,59748.0,1062,Orlando Intl,28.429394,-81.308994,Hartsfield Jackson Atlanta Intl,33.636719,-84.428067
359,MSP,ATL,5369,41646.0,730,Minneapolis St Paul Intl,44.881956,-93.221767,Hartsfield Jackson Atlanta Intl,33.636719,-84.428067
360,ORD,ATL,7449,116677.0,1578,Chicago Ohare Intl,41.978603,-87.904842,Hartsfield Jackson Atlanta Intl,33.636719,-84.428067
361,PHX,ATL,4607,22970.0,461,Phoenix Sky Harbor Intl,33.434278000000006,-112.011583,Hartsfield Jackson Atlanta Intl,33.636719,-84.428067
362,SEA,ATL,2571,15640.0,301,Seattle Tacoma Intl,47.449,-122.309306,Hartsfield Jackson Atlanta Intl,33.636719,-84.428067
363,SFO,ATL,3098,25064.0,430,San Francisco Intl,37.618972,-122.374889,Hartsfield Jackson Atlanta Intl,33.636719,-84.428067
364,SLC,ATL,2866,18680.0,322,Salt Lake City Intl,40.788389,-111.977772,Hartsfield Jackson Atlanta Intl,33.636719,-84.428067
